     2.100          NAVIGATION                              RINEX VERSION / TYPE
fic2rin                                 05/19/2009 01:53:56 PGM / RUN BY / DATE
                                                            END OF HEADER
 3 09  5 18 18  0  0.0  .394745729864D-03  .511590769747D-11  .000000000000D+00
     .970000000000D+02 -.409687500000D+02  .502663795108D-08  .273519855499D+01
    -.210665166378D-05  .118688324001D-01  .104606151581D-04  .515375740623D+04
     .151200000000D+06  .100582838058D-06 -.143065729922D+01 -.128522515297D-06
     .925949163328D+00  .157531250000D+03  .901016900662D+00 -.810748056625D-08
    -.707172313708D-10  .100000000000D+01  .153200000000D+04  .000000000000D+00
     .240000000000D+01  .000000000000D+00 -.419095158577D-08  .970000000000D+02
     .144006000000D+06  .400000000000D+01
 5 09  5 18 18  0  0.0 -.851247459650D-04 -.202362571144D-10  .000000000000D+00
     .120000000000D+02 -.320937500000D+02  .512164190837D-08 -.635509171576D+00
    -.163353979588D-05  .962926435750D-02  .521913170815D-05  .515356142426D+04
     .151200000000D+06 -.968575477600D-07 -.246106995939D+01  .912696123123D-07
     .946079236478D+00  .269781250000D+03  .130541946597D+01 -.862464496537D-08
    -.996470078407D-10  .100000000000D+01  .153200000000D+04  .000000000000D+00
     .340000000000D+01  .630000000000D+02 -.419095158577D-08  .120000000000D+02
     .144006000000D+06  .400000000000D+01
 6 09  5 18 18  0  0.0  .127797480673D-03  .151203494170D-10  .000000000000D+00
     .640000000000D+02 -.210312500000D+02  .491056168746D-08 -.107829173794D+01
    -.100396573544D-05  .598136382177D-02  .107102096081D-04  .515370808411D+04
     .151200000000D+06 -.260770320892D-07 -.136311391215D+01  .109896063805D-06
     .933447823929D+00  .161593750000D+03 -.137149125694D+01 -.829927426951D-08
     .892894335490D-11  .100000000000D+01  .153200000000D+04  .000000000000D+00
     .240000000000D+01  .000000000000D+00 -.465661287308D-08  .640000000000D+02
     .144006000000D+06  .400000000000D+01
 7 09  5 18 18  0  0.0  .186460092664D-04 -.682121026330D-12  .000000000000D+00
     .410000000000D+02  .190625000000D+02  .450161608181D-08  .137466379960D+01
     .112317502499D-05  .254827027675D-02  .710971653461D-05  .515367173767D+04
     .151200000000D+06  .484287738800D-07  .287203676393D+01 -.838190317154D-07
     .967539093384D+00  .241406250000D+03  .287675966182D+01 -.815712549130D-08
     .125719522437D-09  .100000000000D+01  .153200000000D+04  .000000000000D+00
     .240000000000D+01  .000000000000D+00 -.107102096081D-07  .410000000000D+02
     .144006000000D+06  .400000000000D+01
 8 09  5 18 18  0  0.0 -.203648582101D-03 -.181898940355D-11  .000000000000D+00
     .590000000000D+02  .148125000000D+02  .400552398901D-08  .648317965868D+00
     .594183802605D-06  .105661675334D-01  .702962279320D-05  .515365009308D+04
     .151200000000D+06  .124797224998D-06  .293218644161D+01  .111758708954D-07
     .988755054051D+00  .252656250000D+03  .298894414038D+01 -.794390232399D-08
     .871464871438D-10  .100000000000D+01  .153200000000D+04  .000000000000D+00
     .340000000000D+01  .000000000000D+00 -.372529029846D-08  .590000000000D+02
     .144006000000D+06  .400000000000D+01
 9 09  5 18 18  0  0.0  .565270893276D-04  .193267624127D-11  .000000000000D+00
     .990000000000D+02  .198750000000D+02  .436446751188D-08  .408455313598D+00
     .123307108879D-05  .205217180774D-01  .779330730438D-05  .515363636208D+04
     .151200000000D+06 -.271946191788D-06  .283797561010D+01 -.745058059692D-08
     .976454234655D+00  .243000000000D+03  .147450502975D+01 -.838142054838D-08
     .625026034843D-10  .100000000000D+01  .153200000000D+04  .000000000000D+00
     .240000000000D+01  .000000000000D+00 -.558793544769D-08  .990000000000D+02
     .144006000000D+06  .400000000000D+01
10 09  5 18 18  0  0.0 -.161854550242D-04 -.568434188608D-12  .000000000000D+00
     .730000000000D+02 -.106250000000D+01  .490699011012D-08 -.227930536654D+01
    -.370666384697D-06  .860421895050D-02  .493228435516D-05  .515360193443D+04
     .151200000000D+06  .150874257088D-06  .801045413751D+00 -.152736902237D-06
     .958530413131D+00  .282343750000D+03  .625439998601D+00 -.831106047474D-08
    -.357157734196D-12  .100000000000D+01  .153200000000D+04  .000000000000D+00
     .240000000000D+01  .000000000000D+00 -.279396772385D-08  .730000000000D+02
     .144006000000D+06  .400000000000D+01
11 09  5 18 18  0  0.0 -.301841646433D-05 -.147792889038D-11  .000000000000D+00
     .580000000000D+02  .526875000000D+02  .616489964996D-08  .119286573958D+01
     .270269811153D-05  .932228739839D-02  .877119600773D-05  .515368758583D+04
     .151200000000D+06 -.465661287308D-07 -.482603606103D+00  .800937414169D-07
     .889689176337D+00  .170531250000D+03  .696845520127D+00 -.898215985730D-08
     .187507810453D-09  .100000000000D+01  .153200000000D+04  .000000000000D+00
     .240000000000D+01  .000000000000D+00 -.116415321827D-07  .580000000000D+02
     .144006000000D+06  .400000000000D+01
12 09  5 18 18  0  0.0 -.279381871223D-03  .534328137292D-11  .000000000000D+00
     .430000000000D+02 -.394687500000D+02  .454518932538D-08  .141453984359D+01
    -.211782753468D-05  .335017440375D-02  .543519854546D-05  .515365681076D+04
     .151200000000D+06  .614672899246D-07 -.235955390309D+01  .130385160446D-07
     .966819268932D+00  .274031250000D+03 -.716514264987D+00 -.814819654795D-08
    -.174650132022D-09  .100000000000D+01  .153200000000D+04  .000000000000D+00
     .240000000000D+01  .000000000000D+00 -.116415321827D-07  .430000000000D+02
     .144006000000D+06  .400000000000D+01
13 09  5 18 18  0  0.0  .297398772091D-03  .909494701773D-12  .000000000000D+00
     .490000000000D+02 -.224062500000D+02  .377730019686D-08 -.256483750951D+01
    -.102259218693D-05  .412144686561D-02  .969320535660D-05  .515371444321D+04
     .151200000000D+06  .540167093277D-07  .188192556141D+01  .726431608200D-07
     .994746021039D+00  .211531250000D+03  .156432584598D+01 -.764889003554D-08
    -.753602819154D-10  .100000000000D+01  .153200000000D+04  .000000000000D+00
     .240000000000D+01  .000000000000D+00 -.111758708954D-07  .490000000000D+02
     .144006000000D+06  .400000000000D+01
14 09  5 18 18  0  0.0 -.108638778329D-03  .591171556152D-11  .000000000000D+00
     .360000000000D+02 -.105937500000D+02  .390694845437D-08 -.274768375034D+01
    -.448897480965D-06  .441846344620D-02  .946223735809D-05  .515360696030D+04
     .151200000000D+06  .121071934700D-06  .186246747822D+01 -.838190317154D-07
     .988253714951D+00  .209500000000D+03 -.214809235265D+01 -.771103548129D-08
    -.142148778210D-09  .100000000000D+01  .153200000000D+04  .000000000000D+00
     .240000000000D+01  .000000000000D+00 -.931322574615D-08  .360000000000D+02
     .144006000000D+06  .400000000000D+01
16 09  5 18 18  0  0.0  .499240122736D-04 -.329691829393D-11  .000000000000D+00
     .590000000000D+02 -.472187500000D+02  .443661337418D-08 -.106557618713D+01
    -.244006514549D-05  .534019351471D-02  .615417957306D-05  .515354311752D+04
     .151200000000D+06 -.117346644402D-06 -.234261778826D+01 -.614672899246D-07
     .968266855630D+00  .266562500000D+03 -.364957786642D+00 -.811533803640D-08
    -.133934150324D-09  .100000000000D+01  .153200000000D+04  .000000000000D+00
     .240000000000D+01  .000000000000D+00 -.977888703346D-08  .590000000000D+02
     .144006000000D+06  .400000000000D+01
17 09  5 18 18  0  0.0  .596502795815D-04  .193267624127D-11  .000000000000D+00
     .290000000000D+02 -.296875000000D+02  .426553481950D-08 -.217496743928D+01
    -.148639082909D-05  .449959584512D-02  .102426856756D-04  .515368297958D+04
     .151200000000D+06 -.800937414169D-07 -.130008338743D+01 -.447034835815D-07
     .959410624606D+00  .182156250000D+03 -.264673196203D+01 -.779389607563D-08
     .214294640518D-11  .100000000000D+01  .153200000000D+04  .000000000000D+00
     .240000000000D+01  .000000000000D+00 -.102445483208D-07  .290000000000D+02
     .144006000000D+06  .400000000000D+01
18 09  5 18 18  0  0.0 -.558248721063D-04  .329691829393D-11  .000000000000D+00
     .900000000000D+02 -.290625000000D+01  .529450625172D-08 -.887220635204D+00
     .316649675369D-07  .103426801506D-01  .503659248352D-05  .515359340477D+04
     .151200000000D+06  .128522515297D-06  .806623950485D+00  .176951289177D-06
     .942574449026D+00  .271031250000D+03 -.242352171649D+01 -.856107088868D-08
    -.101075638777D-09  .100000000000D+01  .153200000000D+04  .000000000000D+00
     .240000000000D+01  .000000000000D+00 -.107102096081D-07  .900000000000D+02
     .144006000000D+06  .400000000000D+01
19 09  5 18 18  0  0.0  .253054313362D-04 -.113686837722D-11  .000000000000D+00
     .260000000000D+02 -.140000000000D+02  .439411160381D-08 -.279156841077D+01
    -.556930899620D-06  .557617540471D-02  .112839043140D-04  .515360755920D+04
     .151200000000D+06 -.242143869400D-07 -.124398441434D+01  .465661287308D-07
     .957148975200D+00  .158718750000D+03 -.365688422059D+00 -.790532928870D-08
     .928610108910D-11  .100000000000D+01  .153200000000D+04  .000000000000D+00
     .240000000000D+01  .000000000000D+00 -.144354999065D-07  .260000000000D+02
     .144006000000D+06  .400000000000D+01
20 09  5 18 18  0  0.0  .822963193059D-04 -.102318153949D-11  .000000000000D+00
     .380000000000D+02  .356250000000D+01  .538200989660D-08 -.741195723514D+00
     .229105353355D-06  .399241002742D-02  .518374145031D-05  .515360606003D+04
     .151200000000D+06 -.279396772385D-07  .752784524588D+00  .502914190292D-07
     .942249868466D+00  .275562500000D+03  .135933655234D+01 -.863535969739D-08
    -.932181686252D-10  .100000000000D+01  .153200000000D+04  .000000000000D+00
     .240000000000D+01  .000000000000D+00 -.651925802231D-08  .380000000000D+02
     .144006000000D+06  .400000000000D+01
